$$SOE
2460154.500000000, A.D. 2023-Jul-29 00:00:00.0000, -1.727449834420002E+08, -2.182968589913653E+08, 8.084692969828680E+06,
2460161.500000000, A.D. 2023-Aug-05 00:00:00.0000, -1.627890517651399E+08, -2.251925039532727E+08, 2.828297869376600E+06,
2460168.500000000, A.D. 2023-Aug-12 00:00:00.0000, -1.524649840817700E+08, -2.315787819886732E+08, -2.434479920994252E+06,
2460175.500000000, A.D. 2023-Aug-19 00:00:00.0000, -1.417938481634846E+08, -2.374377768178056E+08, -7.691699745112062E+06,
2460182.500000000, A.D. 2023-Aug-26 00:00:00.0000, -1.307977982445014E+08, -2.427525588327945E+08, -1.293127487451857E+07,
2460189.500000000, A.D. 2023-Sep-02 00:00:00.0000, -1.195000482173001E+08, -2.475072539823148E+08, -1.814099904572853E+07,
2460196.500000000, A.D. 2023-Sep-09 00:00:00.0000, -1.079248399256874E+08, -2.516871128070971E+08, -2.330857476692282E+07,
2460203.500000000, A.D. 2023-Sep-16 00:00:00.0000, -9.609740616139658E+07, -2.552785792911942E+08, -2.842164339901312E+07,
2460210.500000000, A.D. 2023-Sep-23 00:00:00.0000, -8.404392774608029E+07, -2.582693588128487E+08, -3.346781699269797E+07,
2460217.500000000, A.D. 2023-Sep-30 00:00:00.0000, -7.179148486724330E+07, -2.606484835398870E+08, -3.843471170019327E+07,
2460224.500000000, A.D. 2023-Oct-07 00:00:00.0000, -5.936800488572156E+07, -2.624063753130997E+08, -4.330998251563962E+07,
2460231.500000000, A.D. 2023-Oct-14 00:00:00.0000, -4.680220547779452E+07, -2.635349088035456E+08, -4.808135961369424E+07,
2460238.500000000, A.D. 2023-Oct-21 00:00:00.0000, -3.412352983490104E+07, -2.640274727955905E+08, -5.273668633323690E+07,
2460245.500000000, A.D. 2023-Oct-28 00:00:00.0000, -2.136207535166514E+07, -2.638790267703019E+08, -5.726395834966160E+07,
2460252.500000000, A.D. 2023-Nov-04 00:00:00.0000, -8.548517114880258E+06, -2.630861529763625E+08, -6.165136381878142E+07,
2460259.500000000, A.D. 2023-Nov-11 00:00:00.0000, 4.285973860531236E+06, -2.616471039960758E+08, -6.588732436852689E+07,
2460266.500000000, A.D. 2023-Nov-18 00:00:00.0000, 1.710981767841765E+07, -2.595618452757239E+08, -6.996053675036125E+07,
2460273.500000000, A.D. 2023-Nov-25 00:00:00.0000, 2.989111770803645E+07, -2.568320920058607E+08, -7.386001491705759E+07,
2460280.500000000, A.D. 2023-Dec-02 00:00:00.0000, 4.259775753860804E+07, -2.534613397874622E+08, -7.757513227120483E+07,
2460287.500000000, A.D. 2023-Dec-09 00:00:00.0000, 5.519750243071400E+07, -2.494548886001693E+08, -8.109566382230057E+07,
2460294.500000000, A.D. 2023-Dec-16 00:00:00.0000, 6.765810508787546E+07, -2.448198595555314E+08, -8.441182798945439E+07,
2460301.500000000, A.D. 2023-Dec-23 00:00:00.0000, 7.994741556070322E+07, -2.395652032839014E+08, -8.751432772190602E+07,
2460308.500000000, A.D. 2023-Dec-30 00:00:00.0000, 9.203349334186995E+07, -2.337016984909601E+08, -9.039439041242982E+07,
2460315.500000000, A.D. 2024-Jan-06 00:00:00.0000, 1.038847192174716E+08, -2.272419426875049E+08, -9.304380630857229E+07,
2460322.500000000, A.D. 2024-Jan-13 00:00:00.0000, 1.154699093335026E+08, -2.202003366127607E+08, -9.545496553273182E+07,
2460329.500000000, A.D. 2024-Jan-20 00:00:00.0000, 1.267584319406384E+08, -2.125930590654809E+08, -9.762089324949676E+07,
2460336.500000000, A.D. 2024-Jan-27 00:00:00.0000, 1.377203239861074E+08, -2.044380313775386E+08, -9.953528242701295E+07,
2460343.500000000, A.D. 2024-Feb-03 00:00:00.0000, 1.483264062902999E+08, -1.957548724545219E+08, -1.011925239272106E+08,
2460350.500000000, A.D. 2024-Feb-10 00:00:00.0000, 1.585483967325780E+08, -1.865648447447519E+08, -1.025877336870212E+08,
2460357.500000000, A.D. 2024-Feb-17 00:00:00.0000, 1.683590207248481E+08, -1.768907912977719E+08, -1.037167767376631E+08,
2460364.500000000, A.D. 2024-Feb-24 00:00:00.0000, 1.777321181522023E+08, -1.667570641667786E+08, -1.045762878255369E+08,
2460371.500000000, A.D. 2024-Mar-02 00:00:00.0000, 1.866427459671031E+08, -1.561894445543191E+08, -1.051636884296678E+08,
2460378.500000000, A.D. 2024-Mar-09 00:00:00.0000, 1.950672757620608E+08, -1.452150552208081E+08, -1.054772000140378E+08,
2460385.500000000, A.D. 2024-Mar-16 00:00:00.0000, 2.029834859523803E+08, -1.338622655042368E+08, -1.055158533980558E+08,
2460392.500000000, A.D. 2024-Mar-23 00:00:00.0000, 2.103706477599279E+08, -1.221605884849344E+08, -1.052794940583578E+08,
2460399.500000000, A.D. 2024-Mar-30 00:00:00.0000, 2.172096021045685E+08, -1.101405710522645E+08, -1.047687831083054E+08,
2460406.500000000, A.D. 2024-Apr-06 00:00:00.0000, 2.234828270672244E+08, -9.783368102865386E+07, -1.039851942266227E+08,
2460413.500000000, A.D. 2024-Apr-13 00:00:00.0000, 2.291744989663042E+08, -8.527219134063514E+07, -1.029310067962217E+08,
2460420.500000000, A.D. 2024-Apr-20 00:00:00.0000, 2.342705456869775E+08, -7.248905941869542E+07, -1.016092949988747E+08,
2460427.500000000, A.D. 2024-Apr-27 00:00:00.0000, 2.387586904430528E+08, -5.951780327226201E+07, -1.000239128819206E+08,
2460434.500000000, A.D. 2024-May-04 00:00:00.0000, 2.426284858594891E+08, -4.639237585225959E+07, -9.817947562855422E+07,
2460441.500000000, A.D. 2024-May-11 00:00:00.0000, 2.458713385118901E+08, -3.314703872998863E+07, -9.608133727001014E+07,
2460448.500000000, A.D. 2024-May-18 00:00:00.0000, 2.484805239962665E+08, -1.981623599655771E+07, -9.373556507877636E+07,
2460455.500000000, A.D. 2024-May-25 00:00:00.0000, 2.504511926379713E+08, -6.434469291850545E+06, -9.114891089755683E+07,
2460462.500000000, A.D. 2024-Jun-01 00:00:00.0000, 2.517803660769691E+08, 6.963825116860349E+06, -8.832877968565096E+07,
2460469.500000000, A.D. 2024-Jun-08 00:00:00.0000, 2.524669252392664E+08, 2.034439636643114E+07, -8.528319559656081E+07,
2460476.500000000, A.D. 2024-Jun-15 00:00:00.0000, 2.525115904275203E+08, 3.367329592559037E+07, -8.202076587731338E+07,
2460483.500000000, A.D. 2024-Jun-22 00:00:00.0000, 2.519168929360110E+08, 4.691699191564717E+07, -7.855064271458726E+07,
2460490.500000000, A.D. 2024-Jun-29 00:00:00.0000, 2.506871365694642E+08, 6.004247838873768E+07, -7.488248331883332E+07,
2460497.500000000, A.D. 2024-Jul-06 00:00:00.0000, 2.488283522557107E+08, 7.301737653223467E+07, -7.102640902181342E+07,
2460504.500000000, A.D. 2024-Jul-13 00:00:00.0000, 2.463482482713000E+08, 8.581003015001310E+07, -6.699296365192619E+07,
2460511.500000000, A.D. 2024-Jul-20 00:00:00.0000, 2.432561547056324E+08, 9.838959618386450E+07, -6.279307122512561E+07,
2460518.500000000, A.D. 2024-Jul-27 00:00:00.0000, 2.395629621490671E+08, 1.107261290084901E+08, -5.843799327538143E+07,
2460525.500000000, A.D. 2024-Aug-03 00:00:00.0000, 2.352810555331028E+08, 1.227906578958519E+08, -5.393928617050038E+07,
2460532.500000000, A.D. 2024-Aug-10 00:00:00.0000, 2.304242439468702E+08, 1.345552574923441E+08, -4.930875870004780E+07,
2460539.500000000, A.D. 2024-Aug-17 00:00:00.0000, 2.250076871301109E+08, 1.459931112527926E+08, -4.455843018796946E+07,
2460546.500000000, A.D. 2024-Aug-24 00:00:00.0000, 2.190478193092138E+08, 1.570785678019435E+08, -3.970048936190806E+07,
2460553.500000000, A.D. 2024-Aug-31 00:00:00.0000, 2.125622711099756E+08, 1.677871902217278E+08, -3.474725420011310E+07,
2460560.500000000, A.D. 2024-Sep-07 00:00:00.0000, 2.055697905076988E+08, 1.780957985111858E+08, -2.971113296332546E+07,
2460567.500000000, A.D. 2024-Sep-14 00:00:00.0000, 1.980901634644444E+08, 1.879825063780714E+08, -2.460458649992696E+07,
2460574.500000000, A.D. 2024-Sep-21 00:00:00.0000, 1.901441327329253E+08, 1.974267529771520E+08, -1.944009174002081E+07,
2460581.500000000, A.D. 2024-Sep-28 00:00:00.0000, 1.817533148206329E+08, 2.064093266417674E+08, -1.423010671525952E+07,
2460588.500000000, A.D. 2024-Oct-05 00:00:00.0000, 1.729401192578088E+08, 2.149123809106625E+08, -8.987037539754227E+06,
2460595.500000000, A.D. 2024-Oct-12 00:00:00.0000, 1.637276702185595E+08, 2.229194461334932E+08, -3.723207144200549E+06,
2460602.500000000, A.D. 2024-Oct-19 00:00:00.0000, 1.541397291013927E+08, 2.304154367185289E+08, 1.549174329578489E+06,
2460609.500000000, A.D. 2024-Oct-26 00:00:00.0000, 1.442006183567699E+08, 2.373866535775220E+08, 6.818037384598732E+06,
2460616.500000000, A.D. 2024-Nov-02 00:00:00.0000, 1.339351470981295E+08, 2.438207819861640E+08, 1.207147923170048E+07,
2460623.500000000, A.D. 2024-Nov-09 00:00:00.0000, 1.233685388314282E+08, 2.497068852521018E+08, 1.729778806224765E+07,
2460630.500000000, A.D. 2024-Nov-16 00:00:00.0000, 1.125263615296789E+08, 2.550353945597757E+08, 2.248546555391680E+07,
2460637.500000000, A.D. 2024-Nov-23 00:00:00.0000, 1.014344602639212E+08, 2.597980953005982E+08, 2.762324763966824E+07,
2460644.500000000, A.D. 2024-Nov-30 00:00:00.0000, 9.011889272582896E+07, 2.639881101872309E+08, 3.270012356333156E+07,
2460651.500000000, A.D. 2024-Dec-07 00:00:00.0000, 7.860586814773585E+07, 2.675998798994954E+08, 3.770535326595578E+07,
2460658.500000000, A.D. 2024-Dec-14 00:00:00.0000, 6.692168898191012E+07, 2.706291428048558E+08, 4.262848331446104E+07,
2460665.500000000, A.D. 2024-Dec-21 00:00:00.0000, 5.509269303210110E+07, 2.730729128116168E+08, 4.745936153286965E+07,
2460672.500000000, A.D. 2024-Dec-28 00:00:00.0000, 4.314519797446807E+07, 2.749294526970680E+08, 5.218814997690524E+07,
2460679.500000000, A.D. 2025-Jan-04 00:00:00.0000, 3.110545083863484E+07, 2.761982456225847E+08, 5.680533629745640E+07,
2460686.500000000, A.D. 2025-Jan-11 00:00:00.0000, 1.899958060633506E+07, 2.768799667832929E+08, 6.130174389224550E+07,
2460693.500000000, A.D. 2025-Jan-18 00:00:00.0000, 6.853552965837259E+06, 2.769764545170572E+08, 6.566854095043802E+07,
2460700.500000000, A.D. 2025-Jan-25 00:00:00.0000, -5.306872594324322E+06, 2.764906806124275E+08, 6.989724841828029E+07,
2460707.500000000, A.D. 2025-Feb-01 00:00:00.0000, -1.745618324075447E+07, 2.754267199674402E+08, 7.397974694205052E+07,
2460714.500000000, A.D. 2025-Feb-08 00:00:00.0000, -2.956915084697082E+07, 2.737897197773168E+08, 7.790828285043059E+07,
2460721.500000000, A.D. 2025-Feb-15 00:00:00.0000, -4.162086774532319E+07, 2.715858683833758E+08, 8.167547324073854E+07,
$$EOE